{"type":"Feature","properties":{"name":"Friuli Venezia Giulia","istat_region_code":"06","source":"ISTAT Basi territoriali 2019-01-01, teamdigitale/confini-amministrativi-istat","source_url":"https://github.com/teamdigitale/confini-amministrativi-istat/tree/develop/20190101","license":"CC-BY 4.0","crs":"EPSG:4326","processing":"FVG-only geometry reprojected from ETRS89 / UTM zone 32N and simplified (0.0012 degrees)."},"geometry":{"type":"MultiPolygon","coordinates":[[[[13.53623,45.78427],[13.53845,45.78195],[13.54125,45.78612],[13.54196,45.78637],[13.54628,45.78708],[13.5471,45.78578],[13.53727,45.78034],[13.52571,45.77072],[13.52068,45.76182],[13.52074,45.75709],[13.52077,45.75698],[13.52584,45.7478],[13.51644,45.74427],[13.5265,45.73664],[13.53447,45.7363],[13.54905,45.73104],[13.55325,45.72947],[13.55463,45.72794],[13.55284,45.72412],[13.53056,45.72335],[13.48563,45.70443],[13.47257,45.70422],[13.46713,45.70931],[13.46108,45.71121],[13.46846,45.70358],[13.46805,45.70308],[13.46022,45.69415],[13.45415,45.68991],[13.44394,45.68715],[13.42427,45.67724],[13.38941,45.67525],[13.3736,45.68001],[13.36784,45.68295],[13.35922,45.68208],[13.35318,45.67901],[13.34377,45.68036],[13.30505,45.69543],[13.29156,45.70407],[13.26252,45.70749],[13.26212,45.70757],[13.25412,45.71061],[13.25265,45.71424],[13.2458,45.7195],[13.23333,45.71471],[13.20896,45.71288],[13.18579,45.71115],[13.17096,45.70308],[13.15674,45.70266],[13.14882,45.69884],[13.15342,45.69651],[13.14813,45.68938],[13.10931,45.66288],[13.10079,45.64339],[13.0871,45.65117],[13.08427,45.65732],[13.08114,45.65882],[13.07444,45.6591],[13.06541,45.65563],[13.06337,45.65677],[13.06188,45.66292],[13.06677,45.67234],[13.06249,45.67917],[13.05425,45.67765],[13.0436,45.68549],[13.04429,45.68759],[13.05046,45.68855],[13.05325,45.69452],[13.04976,45.69702],[13.04497,45.69383],[13.03803,45.69855],[13.03684,45.69938],[13.04065,45.70603],[13.03807,45.71418],[13.03016,45.72527],[13.02921,45.73617],[13.02653,45.73682],[13.01643,45.73061],[13.01503,45.72445],[13.00831,45.72489],[13.00797,45.73104],[13.01565,45.73526],[13.01606,45.73592],[13.01565,45.74134],[13.00673,45.74479],[13.00119,45.74929],[13.00129,45.75002],[13.0067,45.76061],[13.01204,45.76251],[13.00897,45.76511],[12.99978,45.76759],[12.99853,45.76867],[12.98468,45.7814],[12.98123,45.78689],[12.98064,45.7929],[12.99127,45.79695],[12.99062,45.80084],[12.98797,45.80097],[12.98636,45.79642],[12.98236,45.79558],[12.9739,45.80664],[12.97874,45.81457],[12.98349,45.81489],[12.98516,45.81053],[12.98838,45.80874],[12.99158,45.81028],[12.99324,45.81501],[12.98661,45.81836],[12.98132,45.81867],[12.97816,45.8241],[12.98207,45.8273],[12.97718,45.82684],[12.97706,45.82486],[12.97702,45.82371],[12.97419,45.82336],[12.97088,45.82867],[12.97209,45.82954],[12.97905,45.83404],[12.96968,45.83568],[12.96718,45.83601],[12.9664,45.8382],[12.96633,45.84113],[12.96143,45.84687],[12.95778,45.84737],[12.95478,45.84622],[12.95137,45.843],[12.95207,45.82221],[12.9419,45.82034],[12.9295,45.81735],[12.92051,45.83134],[12.91936,45.82978],[12.91502,45.82462],[12.91107,45.82606],[12.9008,45.8245],[12.89988,45.8227],[12.89325,45.81969],[12.89006,45.82047],[12.86967,45.83376],[12.87723,45.8432],[12.87498,45.85034],[12.86118,45.85079],[12.85417,45.84989],[12.83687,45.84746],[12.83675,45.84536],[12.83724,45.84127],[12.83385,45.83827],[12.82878,45.83548],[12.82351,45.83676],[12.8189,45.83373],[12.81882,45.82432],[12.80858,45.82018],[12.80158,45.82316],[12.79994,45.82573],[12.7986,45.83239],[12.8043,45.84462],[12.78856,45.84934],[12.78185,45.85396],[12.77982,45.85444],[12.7695,45.85048],[12.76889,45.84996],[12.76608,45.84755],[12.76873,45.84531],[12.7688,45.84524],[12.74286,45.82662],[12.72999,45.83728],[12.71252,45.8208],[12.70352,45.81616],[12.69516,45.80671],[12.69502,45.80635],[12.68312,45.79979],[12.67893,45.7947],[12.66968,45.79079],[12.66904,45.79089],[12.66165,45.79243],[12.65028,45.80367],[12.65156,45.80462],[12.65399,45.80684],[12.65422,45.80893],[12.654,45.80951],[12.64822,45.81218],[12.63773,45.81833],[12.63302,45.82292],[12.63216,45.82926],[12.63142,45.83],[12.62609,45.83029],[12.62114,45.82792],[12.61592,45.82947],[12.60568,45.83825],[12.59929,45.83461],[12.59444,45.83077],[12.59542,45.82696],[12.59739,45.82214],[12.59209,45.81987],[12.59565,45.81682],[12.59385,45.81518],[12.58764,45.81531],[12.582,45.82423],[12.57287,45.82437],[12.5653,45.83181],[12.56248,45.82634],[12.5593,45.82592],[12.55408,45.82942],[12.54992,45.8395],[12.55445,45.84006],[12.55911,45.84599],[12.54961,45.8607],[12.52986,45.86361],[12.53283,45.86789],[12.53709,45.86865],[12.5363,45.87126],[12.53226,45.88193],[12.53048,45.88439],[12.51641,45.89003],[12.50703,45.89783],[12.51806,45.89986],[12.52319,45.90309],[12.51649,45.90387],[12.51582,45.9041],[12.50864,45.91042],[12.50565,45.91612],[12.50564,45.91616],[12.50791,45.91949],[12.506,45.92271],[12.50008,45.92541],[12.48267,45.92569],[12.47897,45.92698],[12.4747,45.92847],[12.47395,45.92883],[12.4631,45.93452],[12.45425,45.94711],[12.43476,45.94525],[12.42584,45.94735],[12.42229,45.95616],[12.42641,45.97528],[12.42818,45.99576],[12.42373,45.99888],[12.41494,46.01998],[12.4164,46.02194],[12.4164,46.02244],[12.41528,46.02686],[12.39899,46.04142],[12.40508,46.04274],[12.40995,46.05915],[12.4172,46.0605],[12.42405,46.06821],[12.42784,46.07632],[12.43749,46.08483],[12.44285,46.0842],[12.46483,46.09276],[12.48443,46.10447],[12.49407,46.12091],[12.49189,46.12514],[12.4972,46.12976],[12.49883,46.13771],[12.49433,46.14826],[12.49581,46.15255],[12.49405,46.15437],[12.49151,46.1569],[12.465,46.16567],[12.45692,46.17065],[12.44726,46.17958],[12.44718,46.18841],[12.44229,46.19869],[12.44645,46.20777],[12.42949,46.20947],[12.40627,46.20727],[12.40027,46.21126],[12.40285,46.21597],[12.40422,46.21747],[12.40832,46.2195],[12.40865,46.22101],[12.40871,46.22234],[12.40168,46.229],[12.39064,46.22811],[12.37642,46.22294],[12.37335,46.22371],[12.37233,46.22396],[12.36574,46.22931],[12.35999,46.229],[12.34642,46.23925],[12.34371,46.24032],[12.34305,46.24056],[12.33771,46.23947],[12.32781,46.25388],[12.32398,46.25493],[12.32122,46.26446],[12.32094,46.2689],[12.32275,46.27312],[12.32914,46.28212],[12.35083,46.29384],[12.3528,46.30078],[12.35456,46.30862],[12.35531,46.31658],[12.35465,46.31968],[12.36428,46.32541],[12.36483,46.32558],[12.37144,46.32611],[12.37812,46.33162],[12.38433,46.32904],[12.38777,46.32915],[12.39805,46.32855],[12.41146,46.33083],[12.41826,46.33893],[12.42121,46.34258],[12.41737,46.35485],[12.42867,46.3516],[12.44051,46.3586],[12.44923,46.36027],[12.46294,46.36926],[12.46096,46.37904],[12.46052,46.38042],[12.45656,46.38558],[12.45505,46.39167],[12.45691,46.39097],[12.46419,46.38839],[12.46494,46.38854],[12.46935,46.39008],[12.48198,46.40326],[12.49396,46.41141],[12.49526,46.41202],[12.49869,46.4122],[12.49248,46.42426],[12.50458,46.44001],[12.52794,46.45309],[12.52708,46.45946],[12.53084,46.46493],[12.53102,46.4649],[12.53683,46.45972],[12.54172,46.45891],[12.55639,46.46907],[12.56025,46.47115],[12.56995,46.47549],[12.59294,46.4714],[12.60607,46.46413],[12.62075,46.47537],[12.64235,46.47233],[12.64905,46.46656],[12.65477,46.46546],[12.66236,46.46797],[12.65406,46.48439],[12.64367,46.48954],[12.64233,46.49046],[12.63002,46.50071],[12.63158,46.5089],[12.63059,46.51217],[12.62955,46.5154],[12.62528,46.51973],[12.62153,46.52649],[12.61993,46.53467],[12.61916,46.54004],[12.6236,46.55095],[12.63704,46.57264],[12.64394,46.57605],[12.65679,46.57255],[12.66459,46.58197],[12.66856,46.58278],[12.67455,46.5852],[12.68753,46.59986],[12.70858,46.60202],[12.70472,46.6184],[12.70881,46.62351],[12.72744,46.63038],[12.75648,46.64722],[12.77459,46.64679],[12.79502,46.64252],[12.79723,46.63777],[12.80136,46.63477],[12.80285,46.63375],[12.80941,46.63124],[12.81904,46.62825],[12.8309,46.63061],[12.83732,46.62743],[12.83399,46.62086],[12.83365,46.61065],[12.84704,46.6058],[12.85725,46.60541],[12.86052,46.60669],[12.86977,46.60855],[12.88831,46.60691],[12.9287,46.61034],[12.94894,46.60262],[12.95659,46.60632],[12.98769,46.59943],[13.00047,46.6024],[13.00187,46.60207],[13.01313,46.60096],[13.01687,46.60182],[13.02143,46.60213],[13.02752,46.59835],[13.03649,46.59653],[13.04592,46.59535],[13.08457,46.60171],[13.10636,46.59443],[13.10815,46.59515],[13.10936,46.59582],[13.12514,46.5912],[13.16842,46.58883],[13.16865,46.58811],[13.16918,46.58599],[13.1788,46.57832],[13.17965,46.57792],[13.19338,46.57264],[13.209,46.56911],[13.21801,46.57029],[13.22679,46.56393],[13.23219,46.55927],[13.23253,46.55359],[13.23738,46.55319],[13.25272,46.56057],[13.26956,46.56128],[13.30111,46.55828],[13.3095,46.55394],[13.32018,46.55289],[13.34444,46.56986],[13.36388,46.57006],[13.37081,46.56731],[13.36852,46.57382],[13.37196,46.57833],[13.37275,46.57936],[13.40876,46.571],[13.40793,46.56162],[13.4104,46.56108],[13.42543,46.55791],[13.47488,46.55749],[13.5041,46.56608],[13.51243,46.55097],[13.51817,46.5473],[13.51987,46.54696],[13.54404,46.55351],[13.54941,46.55304],[13.561,46.55182],[13.5681,46.54687],[13.5699,46.53888],[13.57711,46.53803],[13.58353,46.53995],[13.58711,46.54448],[13.592,46.54619],[13.59705,46.54576],[13.62125,46.54238],[13.62717,46.54151],[13.63935,46.53557],[13.65864,46.52873],[13.67678,46.52325],[13.70642,46.52097],[13.71385,46.52308],[13.71733,46.51316],[13.71678,46.50735],[13.70405,46.50175],[13.70254,46.49877],[13.70427,46.49121],[13.70634,46.48375],[13.70956,46.48108],[13.69547,46.46863],[13.69875,46.45649],[13.69369,46.44399],[13.68877,46.43987],[13.68424,46.43742],[13.6834,46.43753],[13.65414,46.44226],[13.64838,46.44606],[13.61863,46.44074],[13.59754,46.43925],[13.5787,46.42648],[13.57527,46.40886],[13.56544,46.39821],[13.55864,46.39862],[13.53858,46.38643],[13.51691,46.38301],[13.51734,46.37728],[13.51626,46.37678],[13.49839,46.37112],[13.48198,46.369],[13.47684,46.36412],[13.47574,46.36346],[13.47011,46.36114],[13.45207,46.36307],[13.43899,46.36021],[13.43683,46.35437],[13.44251,46.34845],[13.44737,46.33638],[13.44525,46.33064],[13.43902,46.32228],[13.42569,46.32255],[13.41814,46.31817],[13.41771,46.3177],[13.41553,46.31494],[13.41535,46.31419],[13.41574,46.30967],[13.40662,46.30565],[13.4028,46.3],[13.39037,46.29917],[13.37555,46.29822],[13.37836,46.29038],[13.38154,46.28896],[13.38295,46.29008],[13.38373,46.29062],[13.39187,46.27929],[13.39371,46.26584],[13.39778,46.25507],[13.39858,46.25341],[13.4061,46.24344],[13.40992,46.24001],[13.42248,46.23439],[13.42195,46.2316],[13.41507,46.21872],[13.41038,46.21737],[13.40905,46.21491],[13.40965,46.21387],[13.41077,46.2123],[13.41258,46.21179],[13.42345,46.20634],[13.4463,46.21284],[13.44818,46.21618],[13.44488,46.22384],[13.44828,46.22523],[13.45703,46.22642],[13.46565,46.22364],[13.47298,46.22525],[13.48439,46.22455],[13.49552,46.22225],[13.4969,46.2217],[13.49904,46.2193],[13.49715,46.21768],[13.503,46.21568],[13.51578,46.21506],[13.52906,46.21875],[13.52963,46.21811],[13.5294,46.21225],[13.54572,46.21212],[13.55327,46.20863],[13.55473,46.20788],[13.56196,46.20408],[13.56566,46.19394],[13.56527,46.19279],[13.56509,46.18781],[13.56546,46.18659],[13.56695,46.18567],[13.57318,46.1842],[13.58871,46.19088],[13.58968,46.19054],[13.59085,46.18995],[13.59016,46.18807],[13.59319,46.18857],[13.59485,46.18861],[13.61453,46.18441],[13.63258,46.19074],[13.64572,46.18835],[13.6632,46.18012],[13.66382,46.1698],[13.65412,46.16194],[13.65206,46.14837],[13.64389,46.13708],[13.63034,46.13201],[13.62683,46.12888],[13.62495,46.12594],[13.60127,46.11239],[13.60009,46.10816],[13.59582,46.10421],[13.58351,46.10062],[13.57396,46.09068],[13.57082,46.08916],[13.55021,46.08207],[13.54412,46.08297],[13.52995,46.0677],[13.51531,46.06222],[13.51429,46.06195],[13.50215,46.06234],[13.50096,46.06166],[13.4965,46.05862],[13.49715,46.04834],[13.51002,46.04625],[13.50755,46.03348],[13.49429,46.01455],[13.48029,46.0117],[13.47619,46.00625],[13.48596,45.99911],[13.49477,45.98616],[13.50169,45.98047],[13.50667,45.98004],[13.51589,45.97751],[13.52609,45.97302],[13.52781,45.96706],[13.54098,45.96487],[13.54596,45.96597],[13.54735,45.96959],[13.55177,45.96982],[13.5618,45.96996],[13.56825,45.96808],[13.57458,45.97568],[13.57518,45.97643],[13.57796,45.98309],[13.58465,45.98845],[13.58991,45.98967],[13.60835,45.98436],[13.61519,45.98424],[13.62084,45.98434],[13.62773,45.98734],[13.6334,45.98948],[13.64289,45.983],[13.6395,45.98005],[13.63744,45.9663],[13.6332,45.95024],[13.63755,45.93539],[13.61883,45.91708],[13.60923,45.89925],[13.59378,45.89076],[13.59684,45.88716],[13.59033,45.88832],[13.59288,45.87481],[13.58687,45.87081],[13.57865,45.85476],[13.57716,45.85333],[13.57727,45.85788],[13.57587,45.85486],[13.57273,45.84755],[13.57446,45.84308],[13.58779,45.83413],[13.59636,45.82005],[13.59629,45.80794],[13.60331,45.80425],[13.62329,45.79825],[13.62727,45.79747],[13.65812,45.80034],[13.6694,45.79964],[13.67588,45.79171],[13.68021,45.79299],[13.70906,45.77464],[13.72996,45.76664],[13.73466,45.76355],[13.73707,45.76173],[13.73345,45.76129],[13.73467,45.76016],[13.74557,45.75538],[13.74615,45.75522],[13.75543,45.75546],[13.75938,45.75573],[13.76738,45.75038],[13.78361,45.74823],[13.7963,45.7427],[13.81127,45.72283],[13.82708,45.71426],[13.83371,45.70724],[13.83582,45.69835],[13.83171,45.69466],[13.83265,45.68956],[13.84486,45.68056],[13.85813,45.66567],[13.87922,45.65201],[13.89681,45.64358],[13.90313,45.64257],[13.91885,45.63357],[13.91807,45.63114],[13.90698,45.6251],[13.87914,45.61168],[13.86875,45.60926],[13.86562,45.59669],[13.85351,45.5922],[13.85281,45.59155],[13.85048,45.58891],[13.85112,45.58485],[13.81053,45.58093],[13.78105,45.58412],[13.74716,45.59807],[13.72294,45.59471],[13.72072,45.59805],[13.7199,45.59969],[13.71929,45.60552],[13.73174,45.60887],[13.74076,45.60907],[13.74841,45.60892],[13.76542,45.60628],[13.78622,45.59954],[13.79941,45.60842],[13.80446,45.60944],[13.80613,45.60696],[13.80891,45.60674],[13.8087,45.60698],[13.80401,45.61128],[13.77405,45.61277],[13.77674,45.61356],[13.77722,45.61374],[13.78222,45.61186],[13.78425,45.61378],[13.77892,45.61655],[13.77185,45.62497],[13.77166,45.62522],[13.7739,45.62981],[13.77816,45.63117],[13.77571,45.63556],[13.76648,45.63552],[13.76598,45.63047],[13.75685,45.62789],[13.75611,45.62917],[13.75493,45.63124],[13.7627,45.63345],[13.76272,45.63456],[13.7624,45.63495],[13.75844,45.6364],[13.75754,45.6365],[13.7495,45.63557],[13.74949,45.63559],[13.74914,45.63704],[13.75382,45.63805],[13.74424,45.63913],[13.74391,45.64069],[13.74388,45.64081],[13.7479,45.64127],[13.74819,45.6413],[13.74869,45.64404],[13.75047,45.64572],[13.75505,45.64935],[13.75652,45.64908],[13.7558,45.64682],[13.75902,45.6457],[13.7691,45.65299],[13.76487,45.66027],[13.7625,45.65962],[13.76032,45.66339],[13.75334,45.68044],[13.73345,45.69619],[13.72173,45.70093],[13.712,45.70234],[13.71369,45.70788],[13.71222,45.71016],[13.67699,45.73696],[13.64178,45.75768],[13.63201,45.76822],[13.60288,45.77162],[13.59962,45.7725],[13.5907,45.77551],[13.58129,45.78052],[13.58089,45.78176],[13.5796,45.77483],[13.56191,45.77842],[13.56051,45.7807],[13.5644,45.78184],[13.5636,45.78331],[13.55704,45.78245],[13.54209,45.80008],[13.53345,45.80473],[13.53947,45.80125],[13.54815,45.79024],[13.54761,45.78991],[13.54627,45.78919],[13.54223,45.79284],[13.54156,45.79274],[13.53223,45.79018],[13.53063,45.78885],[13.53003,45.78811],[13.53639,45.78357],[13.53623,45.78427]]],[[[13.7582,45.66314],[13.76199,45.65618],[13.75712,45.66415],[13.7582,45.66314]]],[[[13.71121,45.71084],[13.71126,45.71085],[13.71112,45.71077],[13.71121,45.71084]]],[[[13.77311,45.61232],[13.77315,45.61231],[13.77312,45.6123],[13.77311,45.61232]]],[[[13.6963,45.72088],[13.69634,45.72088],[13.69633,45.72086],[13.6963,45.72088]]]]}}